start=new Date('2022-10-08T00:00:00.000Z').valueOf();
sats=[{"PERIOD":"93.337","SEMIMAJOR_AXIS":"6815.982","EPHEMERIS_TYPE":"0","OBJECT_ID":"2022-086AL","CENTER_NAME":"EARTH","INCLINATION":"53.2168","NORAD_CAT_ID":"53276","PERIAPSIS":"436.541","MEAN_MOTION_DOT":"-0.01106595","ELEMENT_SET_NO":"999","BSTAR":"-0.02715000000000","SITE":"AFETR","APOAPSIS":"439.154","MEAN_MOTION_DDOT":"0.0000000000000","GP_ID":"214438751","EPOCH":"2022-10-07T22:00:00.999936","CLASSIFICATION_TYPE":"U","DECAY_DATE":null,"TLE_LINE2":"2 53276  53.2168  31.9472 0001917  26.9825   6.4593 15.42801574  1304","OBJECT_TYPE":"PAYLOAD","TLE_LINE1":"1 53276U 22086AL  22280.91667824 -.01106595  00000-0 -27150-1 0  9993","MEAN_ANOMALY":"6.4593","MEAN_MOTION":"15.42801574","REF_FRAME":"TEME","RCS_SIZE":"LARGE","LAUNCH_DATE":"2022-07-24","ARG_OF_PERICENTER":"26.9825","COUNTRY_CODE":"US","MEAN_ELEMENT_THEORY":"SGP4","OBJECT_NAME":"STARLINK-4174","TIME_SYSTEM":"UTC","ECCENTRICITY":"0.00019170","FILE":"3595773","RA_OF_ASC_NODE":"31.9472","REV_AT_EPOCH":"130"},{"PERIOD":"93.253","SEMIMAJOR_AXIS":"6811.920","OBJECT_ID":"2022-086AM","EPHEMERIS_TYPE":"0","CENTER_NAME":"EARTH","INCLINATION":"53.2171","PERIAPSIS":"432.560","NORAD_CAT_ID":"53277","MEAN_MOTION_DOT":"-0.01069575","BSTAR":"-0.02534800000000","ELEMENT_SET_NO":"999","SITE":"AFETR","MEAN_MOTION_DDOT":"0.0000000000000","APOAPSIS":"435.009","EPOCH":"2022-10-07T22:00:00.999936","GP_ID":"214437841","CLASSIFICATION_TYPE":"U","DECAY_DATE":null,"TLE_LINE2":"2 53277  53.2171  32.0013 0001798  34.1146  17.7090 15.44182023  1306","OBJECT_TYPE":"PAYLOAD","TLE_LINE1":"1 53277U 22086AM  22280.91667824 -.01069575  00000-0 -25348-1 0  9997","MEAN_ANOMALY":"17.7090","MEAN_MOTION":"15.44182023","REF_FRAME":"TEME","RCS_SIZE":"LARGE","LAUNCH_DATE":"2022-07-24","COUNTRY_CODE":"US","ARG_OF_PERICENTER":"34.1146","MEAN_ELEMENT_THEORY":"SGP4","OBJECT_NAME":"STARLINK-4178","TIME_SYSTEM":"UTC","ECCENTRICITY":"0.00017980","FILE":"3595773","RA_OF_ASC_NODE":"32.0013","REV_AT_EPOCH":"130"},{"MEAN_ANOMALY":"11.8204","TLE_LINE1":"1 53278U 22086AN  22280.91667824 -.01096323  00000-0 -26088-1 0  9991","TLE_LINE2":"2 53278  53.2170  31.9819 0001586  33.4938  11.8204 15.43680276  1308","OBJECT_TYPE":"PAYLOAD","OBJECT_NAME":"STARLINK-4180","MEAN_ELEMENT_THEORY":"SGP4","ARG_OF_PERICENTER":"33.4938","COUNTRY_CODE":"US","REV_AT_EPOCH":"130","RA_OF_ASC_NODE":"31.9819","FILE":"3595773","ECCENTRICITY":"0.00015860","TIME_SYSTEM":"UTC","RCS_SIZE":"LARGE","REF_FRAME":"TEME","MEAN_MOTION":"15.43680276","LAUNCH_DATE":"2022-07-24","CENTER_NAME":"EARTH","PERIOD":"93.284","EPHEMERIS_TYPE":"0","OBJECT_ID":"2022-086AN","SEMIMAJOR_AXIS":"6813.396","MEAN_MOTION_DDOT":"0.0000000000000","APOAPSIS":"436.341","DECAY_DATE":null,"CLASSIFICATION_TYPE":"U","EPOCH":"2022-10-07T22:00:00.999936","GP_ID":"214438587","MEAN_MOTION_DOT":"-0.01096323","PERIAPSIS":"434.180","NORAD_CAT_ID":"53278","INCLINATION":"53.2170","SITE":"AFETR","BSTAR":"-0.02608800000000","ELEMENT_SET_NO":"999"},{"RCS_SIZE":"LARGE","REF_FRAME":"TEME","MEAN_MOTION":"15.69491519","LAUNCH_DATE":"2022-07-24","OBJECT_NAME":"STARLINK-4169","MEAN_ELEMENT_THEORY":"SGP4","COUNTRY_CODE":"US","ARG_OF_PERICENTER":"13.7459","REV_AT_EPOCH":"130","RA_OF_ASC_NODE":"30.6257","FILE":"3595773","ECCENTRICITY":"0.00030680","TIME_SYSTEM":"UTC","TLE_LINE2":"2 53280  53.2166  30.6257 0003068  13.7459 354.7824 15.69491519  1309","OBJECT_TYPE":"PAYLOAD","MEAN_ANOMALY":"354.7824","TLE_LINE1":"1 53280U 22086AQ  22280.91667824 -.00045220  00000-0 -37370-3 0  9991","MEAN_MOTION_DOT":"-0.00045220","NORAD_CAT_ID":"53280","PERIAPSIS":"358.287","INCLINATION":"53.2166","SITE":"AFETR","ELEMENT_SET_NO":"999","BSTAR":"-0.00037370000000","APOAPSIS":"362.421","MEAN_MOTION_DDOT":"0.0000000000000","DECAY_DATE":null,"CLASSIFICATION_TYPE":"U","GP_ID":"214438006","EPOCH":"2022-10-07T22:00:00.999936","PERIOD":"91.749","EPHEMERIS_TYPE":"0","OBJECT_ID":"2022-086AQ","SEMIMAJOR_AXIS":"6738.489","CENTER_NAME":"EARTH"},{"BSTAR":"-0.02520700000000","ELEMENT_SET_NO":"999","SITE":"AFETR","MEAN_MOTION_DOT":"-0.01102138","INCLINATION":"53.2172","NORAD_CAT_ID":"53281","PERIAPSIS":"430.622","DECAY_DATE":null,"CLASSIFICATION_TYPE":"U","GP_ID":"214438990","EPOCH":"2022-10-07T22:00:00.999936","MEAN_MOTION_DDOT":"0.0000000000000","APOAPSIS":"433.007","EPHEMERIS_TYPE":"0","OBJECT_ID":"2022-086AR","SEMIMAJOR_AXIS":"6809.949","PERIOD":"93.213","CENTER_NAME":"EARTH","LAUNCH_DATE":"2022-07-24","RCS_SIZE":"LARGE","MEAN_MOTION":"15.44852167","REF_FRAME":"TEME","FILE":"3595773","REV_AT_EPOCH":"130","RA_OF_ASC_NODE":"32.0237","TIME_SYSTEM":"UTC","ECCENTRICITY":"0.00017510","MEAN_ELEMENT_THEORY":"SGP4","OBJECT_NAME":"STARLINK-4182","ARG_OF_PERICENTER":"30.3998","COUNTRY_CODE":"US","OBJECT_TYPE":"PAYLOAD","TLE_LINE2":"2 53281  53.2172  32.0237 0001751  30.3998  29.5510 15.44852167  1303","TLE_LINE1":"1 53281U 22086AR  22280.91667824 -.01102138  00000-0 -25207-1 0  9999","MEAN_ANOMALY":"29.5510"},{"MEAN_MOTION_DOT":"-0.01095634","NORAD_CAT_ID":"53282","PERIAPSIS":"432.454","INCLINATION":"53.2169","SITE":"AFETR","ELEMENT_SET_NO":"999","BSTAR":"-0.02556200000000","APOAPSIS":"434.675","MEAN_MOTION_DDOT":"0.0000000000000","CLASSIFICATION_TYPE":"U","DECAY_DATE":null,"GP_ID":"214438260","EPOCH":"2022-10-07T22:00:00.999936","PERIOD":"93.249","EPHEMERIS_TYPE":"0","OBJECT_ID":"2022-086AS","SEMIMAJOR_AXIS":"6811.700","CENTER_NAME":"EARTH","RCS_SIZE":"LARGE","REF_FRAME":"TEME","MEAN_MOTION":"15.44256863","LAUNCH_DATE":"2022-07-24","OBJECT_NAME":"STARLINK-4164","MEAN_ELEMENT_THEORY":"SGP4","ARG_OF_PERICENTER":"35.5112","COUNTRY_CODE":"US","RA_OF_ASC_NODE":"32.0026","REV_AT_EPOCH":"130","FILE":"3595773","ECCENTRICITY":"0.00016310","TIME_SYSTEM":"UTC","TLE_LINE2":"2 53282  53.2169  32.0026 0001631  35.5112  17.7555 15.44256863  1307","OBJECT_TYPE":"PAYLOAD","MEAN_ANOMALY":"17.7555","TLE_LINE1":"1 53282U 22086AS  22280.91667824 -.01095634  00000-0 -25562-1 0  9996"},{"CENTER_NAME":"EARTH","SEMIMAJOR_AXIS":"6809.082","OBJECT_ID":"2022-086AT","EPHEMERIS_TYPE":"0","PERIOD":"93.195","EPOCH":"2022-10-07T22:00:00.999936","GP_ID":"214438170","DECAY_DATE":null,"CLASSIFICATION_TYPE":"U","MEAN_MOTION_DDOT":"0.0000000000000","APOAPSIS":"432.274","ELEMENT_SET_NO":"999","BSTAR":"-0.02496500000000","SITE":"AFETR","INCLINATION":"53.2170","PERIAPSIS":"429.621","NORAD_CAT_ID":"53283","MEAN_MOTION_DOT":"-0.01102695","TLE_LINE1":"1 53283U 22086AT  22280.91667824 -.01102695  00000-0 -24965-1 0  9999","MEAN_ANOMALY":"35.9986","OBJECT_TYPE":"PAYLOAD","TLE_LINE2":"2 53283  53.2170  32.0347 0001948  27.0891  35.9986 15.45147358  1306","TIME_SYSTEM":"UTC","ECCENTRICITY":"0.00019480","FILE":"3595773","REV_AT_EPOCH":"130","RA_OF_ASC_NODE":"32.0347","ARG_OF_PERICENTER":"27.0891","COUNTRY_CODE":"US","MEAN_ELEMENT_THEORY":"SGP4","OBJECT_NAME":"STARLINK-4175","LAUNCH_DATE":"2022-07-24","MEAN_MOTION":"15.45147358","REF_FRAME":"TEME","RCS_SIZE":"LARGE"},{"TLE_LINE1":"1 53284U 22086AU  22280.91667824 -.01098694  00000-0 -25380-1 0  9995","MEAN_ANOMALY":"22.6131","TLE_LINE2":"2 53284  53.2171  32.0126 0001606  34.0648  22.6131 15.44554485  1309","OBJECT_TYPE":"PAYLOAD","MEAN_ELEMENT_THEORY":"SGP4","OBJECT_NAME":"STARLINK-4172","COUNTRY_CODE":"US","ARG_OF_PERICENTER":"34.0648","FILE":"3595773","RA_OF_ASC_NODE":"32.0126","REV_AT_EPOCH":"130","TIME_SYSTEM":"UTC","ECCENTRICITY":"0.00016060","RCS_SIZE":"LARGE","MEAN_MOTION":"15.44554485","REF_FRAME":"TEME","LAUNCH_DATE":"2022-07-24","CENTER_NAME":"EARTH","PERIOD":"93.231","EPHEMERIS_TYPE":"0","OBJECT_ID":"2022-086AU","SEMIMAJOR_AXIS":"6810.824","MEAN_MOTION_DDOT":"0.0000000000000","APOAPSIS":"433.783","CLASSIFICATION_TYPE":"U","DECAY_DATE":null,"EPOCH":"2022-10-07T22:00:00.999936","GP_ID":"214438424","MEAN_MOTION_DOT":"-0.01098694","INCLINATION":"53.2171","PERIAPSIS":"431.596","NORAD_CAT_ID":"53284","ELEMENT_SET_NO":"999","BSTAR":"-0.02538000000000","SITE":"AFETR"},{"OBJECT_NAME":"STARLINK-4173","MEAN_ELEMENT_THEORY":"SGP4","COUNTRY_CODE":"US","ARG_OF_PERICENTER":"33.8166","REV_AT_EPOCH":"130","RA_OF_ASC_NODE":"32.0666","FILE":"3595773","ECCENTRICITY":"0.00016340","TIME_SYSTEM":"UTC","RCS_SIZE":"LARGE","REF_FRAME":"TEME","MEAN_MOTION":"15.46046051","LAUNCH_DATE":"2022-07-24","MEAN_ANOMALY":"37.8486","TLE_LINE1":"1 53285U 22086AV  22280.91667824 -.01121153  00000-0 -24646-1 0  9997","TLE_LINE2":"2 53285  53.2170  32.0666 0001634  33.8166  37.8486 15.46046051  1309","OBJECT_TYPE":"PAYLOAD","APOAPSIS":"429.420","MEAN_MOTION_DDOT":"0.0000000000000","DECAY_DATE":null,"CLASSIFICATION_TYPE":"U","GP_ID":"214438752","EPOCH":"2022-10-07T22:00:00.999936","MEAN_MOTION_DOT":"-0.01121153","PERIAPSIS":"427.196","NORAD_CAT_ID":"53285","INCLINATION":"53.2170","SITE":"AFETR","ELEMENT_SET_NO":"999","BSTAR":"-0.02464600000000","CENTER_NAME":"EARTH","PERIOD":"93.141","EPHEMERIS_TYPE":"0","OBJECT_ID":"2022-086AV","SEMIMAJOR_AXIS":"6806.443"},{"ELEMENT_SET_NO":"999","BSTAR":"-0.02363900000000","SITE":"AFETR","MEAN_MOTION_DOT":"-0.01043094","INCLINATION":"53.2172","PERIAPSIS":"428.983","NORAD_CAT_ID":"53286","DECAY_DATE":null,"CLASSIFICATION_TYPE":"U","EPOCH":"2022-10-07T22:00:00.999936","GP_ID":"214437842","APOAPSIS":"431.362","MEAN_MOTION_DDOT":"0.0000000000000","OBJECT_ID":"2022-086AW","EPHEMERIS_TYPE":"0","SEMIMAJOR_AXIS":"6808.308","PERIOD":"93.179","CENTER_NAME":"EARTH","LAUNCH_DATE":"2022-07-24","RCS_SIZE":"LARGE","MEAN_MOTION":"15.45410977","REF_FRAME":"TEME","FILE":"3595773","REV_AT_EPOCH":"130","RA_OF_ASC_NODE":"32.0451","TIME_SYSTEM":"UTC","ECCENTRICITY":"0.00017470","MEAN_ELEMENT_THEORY":"SGP4","OBJECT_NAME":"STARLINK-4165","COUNTRY_CODE":"US","ARG_OF_PERICENTER":"33.5664","OBJECT_TYPE":"PAYLOAD","TLE_LINE2":"2 53286  53.2172  32.0451 0001747  33.5664  32.5345 15.45410977  1306","TLE_LINE1":"1 53286U 22086AW  22280.91667824 -.01043094  00000-0 -23639-1 0  9996","MEAN_ANOMALY":"32.5345"}];
